GLOBALSTAR M084         
1 38040U 11080A   26016.30816845 -.00000120  00000+0 -92510-4 0  9990
2 38040  52.0005 119.6568 0001066 120.6636 273.8933 12.62267089649582
GLOBALSTAR M080         
1 38041U 11080B   26016.27606327 -.00000120  00000+0 -91940-4 0  9995
2 38041  52.0056 121.4204 0000367 118.3347 259.9972 12.62265438649701
GLOBALSTAR M082         
1 38042U 11080C   26016.21705001 -.00000094  00000+0  52138-4 0  9994
2 38042  52.0083  77.0853 0000224 125.0832 274.7076 12.62266647650406
GLOBALSTAR M092         
1 38043U 11080D   26016.14046046 -.00000100  00000+0  18912-4 0  9994
2 38043  52.0065 167.7054 0000984 100.9052  70.5707 12.62269483648845
GLOBALSTAR M090         
1 38044U 11080E   26016.16286534 -.00000093  00000+0  59444-4 0  9991
2 38044  52.0129  71.1576 0000460 102.8364 289.3958 12.62265812650517
GLOBALSTAR M086         
1 38045U 11080F   26016.26508789 -.00000094  00000+0  53579-4 0  9996
2 38045  51.9904  71.0235 0001510  85.5599 303.2098 12.62282073650476
GLOBALSTAR M097         
1 39072U 13005A   26016.28728213 -.00000102  00000+0  11247-4 0  9990
2 39072  52.0070 345.7319 0000541  55.7859 304.3059 12.62268138597721
GLOBALSTAR M093         
1 39073U 13005B   26016.26111118 -.00000094  00000+0  53661-4 0  9995
2 39073  52.0130 339.1020 0000761  39.3127 320.7795 12.62271653597674
